NORAD_CAT_ID,OBJECT_NAME,OBJECT_TYPE,EPOCH,MEAN_MOTION,ECCENTRICITY,INCLINATION,RA_OF_ASC_NODE,ARG_OF_PERICENTER,MEAN_ANOMALY,BSTAR,MEAN_MOTION_DOT,MEAN_MOTION_DDOT,TLE_LINE0,TLE_LINE1,TLE_LINE2,SEMIMAJOR_AXIS,PERIOD,APOGEE,PERIGEE,DECAYED
54764.0,STARLINK-5458,PAYLOAD,2024-04-11 19:14:13,15.08844738,0.000149,53.2172,292.4999,92.3803,267.7359,0.0002693,4.001e-05,0.0,0 STARLINK-5458,1 54764U 22175G   24102.80154720  .00004001  00000-0  26930-3 0  9997,2 54764  53.2172 292.4999 0001490  92.3803 267.7359 15.08844738 74717,6917.866,95.437,540.762,538.7,0.0
54764.0,STARLINK-5458,PAYLOAD,2024-04-11 22:24:59,15.08844384,0.0001411,53.2174,291.906,90.6072,269.5082,0.00018756,2.699e-05,0.0,0 STARLINK-5458,1 54764U 22175G   24102.93402702  .00002699  00000-0  18756-3 0  9995,2 54764  53.2174 291.9060 0001411  90.6072 269.5082 15.08844384 72576,6917.867,95.437,540.708,538.756,0.0
54764.0,STARLINK-5458,PAYLOAD,2024-04-12 22:15:46,15.08851887,0.0001329,53.2172,287.4459,87.2313,272.8832,0.00025253,3.735e-05,0.0,0 STARLINK-5458,1 54764U 22175G   24103.92762149  .00003735  00000-0  25253-3 0  9991,2 54764  53.2172 287.4459 0001329  87.2313 272.8832 15.08851887 74886,6917.844,95.437,540.628,538.79,0.0
54764.0,STARLINK-5458,PAYLOAD,2024-04-13 18:55:47,15.08841603,0.0001446,53.2173,283.577,112.1427,247.9718,5.931e-05,6.56e-06,0.0,0 STARLINK-5458,1 54764U 22175G   24104.78874279  .00000656  00000-0  59310-4 0  9995,2 54764  53.2173 283.5770 0001446 112.1427 247.9718 15.08841603 72850,6917.875,95.437,540.741,538.74,0.0
54764.0,STARLINK-5458,PAYLOAD,2024-04-14 17:11:11,15.08832451,0.0001395,53.2173,279.4164,110.982,249.1321,0.00036105,5.462e-05,0.0,0 STARLINK-5458,1 54764U 22175G   24105.71610586  .00005462  00000-0  36105-3 0  9994,2 54764  53.2173 279.4164 0001395 110.9820 249.1321 15.08832451 72997,6917.903,95.438,540.734,538.803,0.0
54764.0,STARLINK-5458,PAYLOAD,2024-04-15 10:40:25,15.08839565,0.0001361,53.2172,276.1458,110.3179,249.7959,0.00021594,3.15e-05,0.0,0 STARLINK-5458,1 54764U 22175G   24106.44474450  .00003150  00000-0  21594-3 0  9991,2 54764  53.2172 276.1458 0001361 110.3179 249.7959 15.08839565 75269,6917.882,95.438,540.688,538.805,0.0
54764.0,STARLINK-5458,PAYLOAD,2024-04-15 20:12:44,15.08843687,0.0001347,53.2171,274.3611,106.0643,254.0497,0.00010722,1.419e-05,0.0,0 STARLINK-5458,1 54764U 22175G   24106.84218195  .00001419  00000-0  10722-3 0  9994,2 54764  53.2171 274.3611 0001347 106.0643 254.0497 15.08843687 73164,6917.869,95.437,540.666,538.802,0.0
54764.0,STARLINK-5458,PAYLOAD,2024-04-16 10:31:13,15.08839136,0.0001245,53.2172,271.6876,79.213,280.9002,3.1283e-06,-2.38e-06,0.0,0 STARLINK-5458,1 54764U 22175G   24107.43834639 -.00000238  00000-0  31283-5 0  9993,2 54764  53.2172 271.6876 0001245  79.2130 280.9002 15.08839136 73251,6917.883,95.438,540.609,538.887,0.0
54764.0,STARLINK-5458,PAYLOAD,2024-04-16 18:28:08,15.0885531,0.0001406,53.2166,270.2006,68.0574,292.0567,0.00024731,3.652e-05,0.0,0 STARLINK-5458,1 54764U 22175G   24107.76953819  .00003652  00000-0  24731-3 0  9991,2 54764  53.2166 270.2006 0001406  68.0574 292.0567 15.08855310 73309,6917.834,95.437,540.671,538.726,0.0
54764.0,STARLINK-5458,PAYLOAD,2024-04-17 10:22:00,15.08831054,0.0001331,53.216,267.2262,79.491,280.6232,-1.6285e-05,-5.47e-06,0.0,0 STARLINK-5458,1 54764U 22175G   24108.43195298 -.00000547  00000-0 -16285-4 0  9993,2 54764  53.2160 267.2262 0001331  79.4910 280.6232 15.08831054 73402,6917.908,95.438,540.694,538.852,0.0
54764.0,STARLINK-5458,PAYLOAD,2024-04-17 16:43:33,15.08829469,0.0001564,53.2161,266.0363,74.6816,285.4349,5.2906e-06,-2.04e-06,0.0,0 STARLINK-5458,1 54764U 22175G   24108.69691663 -.00000204  00000-0  52906-5 0  9998,2 54764  53.2161 266.0363 0001564  74.6816 285.4349 15.08829469 75605,6917.913,95.438,540.86,538.696,0.0
54764.0,STARLINK-5458,PAYLOAD,2024-04-18 16:34:19,15.08850668,0.000141,53.2169,261.5743,82.2244,277.8908,0.00017037,2.425e-05,0.0,0 STARLINK-5458,1 54764U 22175G   24109.69050761  .00002425  00000-0  17037-3 0  9997,2 54764  53.2169 261.5743 0001410  82.2244 277.8908 15.08850668 73592,6917.848,95.437,540.688,538.737,0.0
54764.0,STARLINK-5458,PAYLOAD,2024-04-19 13:14:20,15.08848265,0.0001456,53.2171,257.7075,88.9743,271.1416,0.00021736,3.174e-05,0.0,0 STARLINK-5458,1 54764U 22175G   24110.55162917  .00003174  00000-0  21736-3 0  9994,2 54764  53.2171 257.7075 0001456  88.9743 271.1416 15.08848265 73723,6917.855,95.437,540.727,538.713,0.0
54764.0,STARLINK-5458,PAYLOAD,2024-04-19 14:49:43,15.08850169,0.0001551,53.2172,257.4109,75.6546,284.4619,0.0002456,3.624e-05,0.0,0 STARLINK-5458,1 54764U 22175G   24110.61786900  .00003624  00000-0  24560-3 0  9993,2 54764  53.2172 257.4109 0001551  75.6546 284.4619 15.08850169 75897,6917.849,95.437,540.787,538.641,0.0
54764.0,STARLINK-5458,PAYLOAD,2024-04-19 16:25:06,15.08854238,0.000162,53.2181,257.1131,87.2738,272.844,0.00030348,4.547e-05,0.0,0 STARLINK-5458,1 54764U 22175G   24110.68410652  .00004547  00000-0  30348-3 0  9994,2 54764  53.2181 257.1131 0001620  87.2738 272.8440 15.08854238 75904,6917.837,95.437,540.823,538.581,0.0
54764.0,STARLINK-5458,PAYLOAD,2024-04-20 14:40:30,15.08855604,0.0001798,53.2177,252.9505,78.3519,281.7674,3.2879e-05,2.35e-06,0.0,0 STARLINK-5458,1 54764U 22175G   24111.61145920  .00000235  00000-0  32879-4 0  9993,2 54764  53.2177 252.9505 0001798  78.3519 281.7674 15.08855604 76043,6917.833,95.437,540.942,538.454,0.0
54764.0,STARLINK-5458,PAYLOAD,2024-04-21 14:31:17,15.08836528,0.0001626,53.2175,248.4879,98.5455,261.5721,-0.00010198,-1.911e-05,0.0,0 STARLINK-5458,1 54764U 22175G   24112.60506796 -.00001911  00000-0 -10198-3 0  9998,2 54764  53.2175 248.4879 0001626  98.5455 261.5721 15.08836528 76197,6917.891,95.438,540.881,538.631,0.0
54764.0,STARLINK-5458,PAYLOAD,2024-04-21 16:06:40,15.0883846,0.0001619,53.2173,248.1901,99.9689,260.1485,-4.7144e-05,-1.038e-05,0.0,0 STARLINK-5458,1 54764U 22175G   24112.67130738 -.00001038  00000-0 -47144-4 0  9996,2 54764  53.2173 248.1901 0001619  99.9689 260.1485 15.08838460 76205,6917.885,95.438,540.87,538.63,0.0
54764.0,STARLINK-5458,PAYLOAD,2024-04-22 08:00:32,15.08835271,0.0001998,53.218,245.2258,69.3481,290.7725,8.1186e-05,1.004e-05,0.0,0 STARLINK-5458,1 54764U 22175G   24113.33371439  .00001004  00000-0  81186-4 0  9990,2 54764  53.2180 245.2258 0001998  69.3481 290.7725 15.08835271 76301,6917.895,95.438,541.142,538.378,0.0
54764.0,STARLINK-5458,PAYLOAD,2024-04-22 19:08:14,15.08841598,0.0001877,53.2175,243.1338,130.0429,230.0728,0.00021781,3.18e-05,0.0,0 STARLINK-5458,1 54764U 22175G   24113.79739087  .00003180  00000-0  21781-3 0  9998,2 54764  53.2175 243.1338 0001877 130.0429 230.0728 15.08841598 74212,6917.876,95.437,541.039,538.442,0.0
54764.0,STARLINK-5458,PAYLOAD,2024-04-23 12:37:29,15.08838259,0.0002896,53.2182,239.8676,129.6187,230.5062,0.00014397,2.003e-05,0.0,0 STARLINK-5458,1 54764U 22175G   24114.52603902  .00002003  00000-0  14397-3 0  9994,2 54764  53.2182 239.8676 0002896 129.6187 230.5062 15.08838259 74322,6917.886,95.438,541.754,537.747,0.0
54764.0,STARLINK-5458,PAYLOAD,2024-04-23 14:12:52,15.08843524,0.0001821,53.2178,239.5703,116.6504,243.4674,0.00029033,4.336e-05,0.0,0 STARLINK-5458,1 54764U 22175G   24114.59227786  .00004336  00000-0  29033-3 0  9997,2 54764  53.2178 239.5703 0001821 116.6504 243.4674 15.08843524 76494,6917.87,95.437,540.994,538.475,0.0
54764.0,STARLINK-5458,PAYLOAD,2024-04-23 15:48:15,15.08854329,0.0001288,53.2167,239.2689,103.243,256.8705,0.00051397,7.905e-05,0.0,0 STARLINK-5458,1 54764U 22175G   24114.65851400  .00007905  00000-0  51397-3 0  9993,2 54764  53.2167 239.2689 0001288 103.2430 256.8705 15.08854329 74349,6917.837,95.437,540.593,538.811,0.0
54764.0,STARLINK-5458,PAYLOAD,2024-04-24 12:28:17,15.0883252,0.0001592,53.2161,235.4116,69.38,290.7362,0.00010695,1.414e-05,0.0,0 STARLINK-5458,1 54764U 22175G   24115.51964887  .00001414  00000-0  10695-3 0  9998,2 54764  53.2161 235.4116 0001592  69.3800 290.7362 15.08832520 74476,6917.903,95.438,540.87,538.667,0.0
54764.0,STARLINK-5458,PAYLOAD,2024-04-24 14:03:39,15.0885436,0.0002036,53.2173,235.1049,149.2478,210.8634,0.00042689,6.515e-05,0.0,0 STARLINK-5458,1 54764U 22175G   24115.58587669  .00006515  00000-0  42689-3 0  9999,2 54764  53.2173 235.1049 0002036 149.2478 210.8634 15.08854360 76646,6917.836,95.437,541.11,538.293,0.0
54764.0,STARLINK-5458,PAYLOAD,2024-04-24 15:39:02,15.08855883,0.0001677,53.2169,234.8078,151.1634,208.9451,0.00047827,7.335e-05,0.0,0 STARLINK-5458,1 54764U 22175G   24115.65211657  .00007335  00000-0  47827-3 0  9998,2 54764  53.2169 234.8078 0001677 151.1634 208.9451 15.08855883 74492,6917.832,95.437,540.857,538.537,0.0
54764.0,STARLINK-5458,PAYLOAD,2024-04-25 12:19:04,15.08846423,0.0001385,53.2178,230.9477,114.427,245.6866,0.00011898,1.606e-05,0.0,0 STARLINK-5458,1 54764U 22175G   24116.51324092  .00001606  00000-0  11898-3 0  9996,2 54764  53.2178 230.9477 0001385 114.4270 245.6866 15.08846423 74629,6917.861,95.437,540.684,538.768,0.0
54764.0,STARLINK-5458,PAYLOAD,2024-04-25 13:54:27,15.08849916,0.000158,53.2182,230.6518,89.4293,270.6881,0.00022308,3.265e-05,0.0,0 STARLINK-5458,1 54764U 22175G   24116.57948183  .00003265  00000-0  22308-3 0  9996,2 54764  53.2182 230.6518 0001580  89.4293 270.6881 15.08849916 76795,6917.85,95.437,540.808,538.622,0.0
54764.0,STARLINK-5458,PAYLOAD,2024-04-26 13:45:13,15.08858744,0.0001326,53.2176,226.1906,99.5478,260.5664,0.00031193,4.682e-05,0.0,0 STARLINK-5458,1 54764U 22175G   24117.57307573  .00004682  00000-0  31193-3 0  9995,2 54764  53.2176 226.1906 0001326  99.5478 260.5664 15.08858744 74787,6917.823,95.436,540.605,538.771,0.0
54764.0,STARLINK-5458,PAYLOAD,2024-04-27 13:36:00,15.08855382,0.0001305,53.216,221.7253,112.6522,247.4609,0.00017143,2.443e-05,0.0,0 STARLINK-5458,1 54764U 22175G   24118.56667030  .00002443  00000-0  17143-3 0  9994,2 54764  53.2160 221.7253 0001305 112.6522 247.4609 15.08855382 74935,6917.833,95.437,540.601,538.796,0.0
